{"type": "FeatureCollection", "features": [ {"type": "Feature", "properties": {"norad_id": 66778, "name": "TRANSPORTER-15DS", "group": "last-30-days", "lat": -61.187658271966136, "lon": 86.54846993715239, "alt_km": 522.6325866730767, "timestamp": "2025-12-27T07:26:23.945893+00:00", "meta": {"OBJECT_NAME": "TRANSPORTER-15DS", "OBJECT_ID": "2025-276DS", "EPOCH": "2025-12-18T19:26:21.991200", "MEAN_MOTION": 15.16535337, "ECCENTRICITY": 0.00032319, "INCLINATION": 97.4427, "RA_OF_ASC_NODE": 64.4586, "ARG_OF_PERICENTER": 41.3734, "MEAN_ANOMALY": 318.7744, "EPHEMERIS_TYPE": 0, "CLASSIFICATION_TYPE": "U", "NORAD_CAT_ID": 66778, "ELEMENT_SET_NO": 999, "REV_AT_EPOCH": 304, "BSTAR": 0.00025483693, "MEAN_MOTION_DOT": 4.904e-05, "MEAN_MOTION_DDOT": 0}, "tle": {"line1": "1 66778U 25276DS  25352.80997675  .00004904  00000+0  25484-3 0  9996", "line2": "2 66778  97.4427  64.4586 0003231  41.3734 318.7744 15.16535337  3043"}}, "geometry": {"type": "Point", "coordinates": [86.54846993715239, -61.187658271966136]}}, {"type": "Feature", "properties": {"norad_id": 66791, "name": "STARLINK-35867", "group": "last-30-days", "lat": 37.85839456506082, "lon": -138.24696693549436, "alt_km": 438.4766232009588, "timestamp": "2025-12-27T07:26:23.945906+00:00", "meta": {"OBJECT_NAME": "STARLINK-35867", "OBJECT_ID": "2025-278A", "EPOCH": "2025-12-26T22:00:01.999584", "MEAN_MOTION": 15.40658829, "ECCENTRICITY": 0.00015925, "INCLINATION": 43.0002, "RA_OF_ASC_NODE": 167.4924, "ARG_OF_PERICENTER": 299.8853, "MEAN_ANOMALY": 100.2317, "EPHEMERIS_TYPE": 0, "CLASSIFICATION_TYPE": "U", "NORAD_CAT_ID": 66791, "ELEMENT_SET_NO": 999, "REV_AT_EPOCH": 523, "BSTAR": 0.0023617465, "MEAN_MOTION_DOT": 0.00099512, "MEAN_MOTION_DDOT": 0}, "tle": {"line1": "1 66791U 25278A   25360.91668981  .00099512  00000+0  23617-2 0  9993", "line2": "2 66791  43.0002 167.4924 0001592 299.8853 100.2317 15.40658829  5236"}}, "geometry": {"type": "Point", "coordinates": [-138.24696693549436, 37.85839456506082]}}, {"type": "Feature", "properties": {"norad_id": 66792, "name": "STARLINK-35990", "group": "last-30-days", "lat": 19.83459692896233, "lon": -37.75600243172951, "alt_km": 412.53942461832594, "timestamp": "2025-12-27T07:26:23.945918+00:00", "meta": {"OBJECT_NAME": "STARLINK-35990", "OBJECT_ID": "2025-278B", "EPOCH": "2025-12-26T22:00:01.999584", "MEAN_MOTION": 15.50557608, "ECCENTRICITY": 0.00016618, "INCLINATION": 43.0002, "RA_OF_ASC_NODE": 167.3181, "ARG_OF_PERICENTER": 268.7614, "MEAN_ANOMALY": 203.2448, "EPHEMERIS_TYPE": 0, "CLASSIFICATION_TYPE": "U", "NORAD_CAT_ID": 66792, "ELEMENT_SET_NO": 999, "REV_AT_EPOCH": 523, "BSTAR": 5.3787039e-05, "MEAN_MOTION_DOT": 2.813e-05, "MEAN_MOTION_DDOT": 0}, "tle": {"line1": "1 66792U 25278B   25360.91668981  .00002813  00000+0  53787-4 0  9995", "line2": "2 66792  43.0002 167.3181 0001661 268.7614 203.2448 15.50557608  5231"}}, "geometry": {"type": "Point", "coordinates": [-37.75600243172951, 19.83459692896233]}}, {"type": "Feature", "properties": {"norad_id": 66793, "name": "STARLINK-36051", "group": "last-30-days", "lat": 17.393834445763265, "lon": -34.636416891963414, "alt_km": 412.96810891921086, "timestamp": "2025-12-27T07:26:23.945928+00:00", "meta": {"OBJECT_NAME": "STARLINK-36051", "OBJECT_ID": "2025-278C", "EPOCH": "2025-12-26T22:00:01.999584", "MEAN_MOTION": 15.50562811, "ECCENTRICITY": 0.00016401, "INCLINATION": 43.0002, "RA_OF_ASC_NODE": 167.3084, "ARG_OF_PERICENTER": 274.9132, "MEAN_ANOMALY": 200.9294, "EPHEMERIS_TYPE": 0, "CLASSIFICATION_TYPE": "U", "NORAD_CAT_ID": 66793, "ELEMENT_SET_NO": 999, "REV_AT_EPOCH": 514, "BSTAR": -0.00015245268, "MEAN_MOTION_DOT": -9.27e-05, "MEAN_MOTION_DDOT": 0}, "tle": {"line1": "1 66793U 25278C   25360.91668981 -.00009270  00000+0 -15245-3 0  9998", "line2": "2 66793  43.0002 167.3084 0001640 274.9132 200.9294 15.50562811  5140"}}, "geometry": {"type": "Point", "coordinates": [-34.636416891963414, 17.393834445763265]}}, {"type": "Feature", "properties": {"norad_id": 66794, "name": "STARLINK-36062", "group": "last-30-days", "lat": 21.586995135175084, "lon": -40.10255508954666, "alt_km": 422.1342466856213, "timestamp": "2025-12-27T07:26:23.945939+00:00", "meta": {"OBJECT_NAME": "STARLINK-36062", "OBJECT_ID": "2025-278D", "EPOCH": "2025-12-26T22:00:01.999584", "MEAN_MOTION": 15.48891708, "ECCENTRICITY": 0.00010996, "INCLINATION": 43.0002, "RA_OF_ASC_NODE": 167.3149, "ARG_OF_PERICENTER": 271.0698, "MEAN_ANOMALY": 201.7332, "EPHEMERIS_TYPE": 0, "CLASSIFICATION_TYPE": "U", "NORAD_CAT_ID": 66794, "ELEMENT_SET_NO": 999, "REV_AT_EPOCH": 523, "BSTAR": -0.041148899, "MEAN_MOTION_DOT": -0.02026914, "MEAN_MOTION_DDOT": 0}, "tle": {"line1": "1 66794U 25278D   25360.91668981 -.02026914  00000+0 -41149-1 0  9995", "line2": "2 66794  43.0002 167.3149 0001099 271.0698 201.7332 15.48891708  5235"}}, "geometry": {"type": "Point", "coordinates": [-40.10255508954666, 21.586995135175084]}}, {"type": "Feature", "properties": {"norad_id": 66795, "name": "STARLINK-36047", "group": "last-30-days", "lat": 38.47059081367503, "lon": -73.4027699645404, "alt_km": 439.746418113491, "timestamp": "2025-12-27T07:26:23.945949+00:00", "meta": {"OBJECT_NAME": "STARLINK-36047", "OBJECT_ID": "2025-278E", "EPOCH": "2025-12-26T22:00:01.999584", "MEAN_MOTION": 15.420807, "ECCENTRICITY": 0.00016489, "INCLINATION": 42.9999, "RA_OF_ASC_NODE": 167.3738, "ARG_OF_PERICENTER": 269.0428, "MEAN_ANOMALY": 180.1701, "EPHEMERIS_TYPE": 0, "CLASSIFICATION_TYPE": "U", "NORAD_CAT_ID": 66795, "ELEMENT_SET_NO": 999, "REV_AT_EPOCH": 514, "BSTAR": -0.047869154, "MEAN_MOTION_DOT": -0.01879288, "MEAN_MOTION_DDOT": 0}, "tle": {"line1": "1 66795U 25278E   25360.91668981 -.01879288  00000+0 -47869-1 0  9990", "line2": "2 66795  42.9999 167.3738 0001648 269.0428 180.1701 15.42080700  5147"}}, "geometry": {"type": "Point", "coordinates": [-73.4027699645404, 38.47059081367503]}}, {"type": "Feature", "properties": {"norad_id": 66796, "name": "STARLINK-35964", "group": "last-30-days", "lat": 11.150600849988605, "lon": 173.95900867193055, "alt_km": 324.4635922471052, "timestamp": "2025-12-27T07:26:23.945959+00:00", "meta": {"OBJECT_NAME": "STARLINK-35964", "OBJECT_ID": "2025-278F", "EPOCH": "2025-12-26T19:14:33.318528", "MEAN_MOTION": 15.80967413, "ECCENTRICITY": 0.00023386, "INCLINATION": 42.9914, "RA_OF_ASC_NODE": 164.8559, "ARG_OF_PERICENTER": 295.7891, "MEAN_ANOMALY": 64.2739, "EPHEMERIS_TYPE": 0, "CLASSIFICATION_TYPE": "U", "NORAD_CAT_ID": 66796, "ELEMENT_SET_NO": 999, "REV_AT_EPOCH": 407, "BSTAR": 0.0019337303, "MEAN_MOTION_DOT": 0.00406093, "MEAN_MOTION_DDOT": 0}, "tle": {"line1": "1 66796U 25278F   25360.80177452  .00406093  00000+0  19337-2 0  9994", "line2": "2 66796  42.9914 164.8559 0002338 295.7891  64.2739 15.80967413  4076"}}, "geometry": {"type": "Point", "coordinates": [173.95900867193055, 11.150600849988605]}}, {"type": "Feature", "properties": {"norad_id": 66797, "name": "STARLINK-36099", "group": "last-30-days", "lat": 13.650666261913695, "lon": -30.11349394463265, "alt_km": 413.30792424682386, "timestamp": "2025-12-27T07:26:23.945971+00:00", "meta": {"OBJECT_NAME": "STARLINK-36099", "OBJECT_ID": "2025-278G", "EPOCH": "2025-12-26T22:00:01.999584", "MEAN_MOTION": 15.50530804, "ECCENTRICITY": 0.00016995, "INCLINATION": 43.0002, "RA_OF_ASC_NODE": 167.2945, "ARG_OF_PERICENTER": 270.5924, "MEAN_ANOMALY": 211.0053, "EPHEMERIS_TYPE": 0, "CLASSIFICATION_TYPE": "U", "NORAD_CAT_ID": 66797, "ELEMENT_SET_NO": 999, "REV_AT_EPOCH": 529, "BSTAR": 0.0011563419, "MEAN_MOTION_DOT": 0.0006797, "MEAN_MOTION_DDOT": 0}, "tle": {"line1": "1 66797U 25278G   25360.91668981  .00067970  00000+0  11563-2 0  9999", "line2": "2 66797  43.0002 167.2945 0001699 270.5924 211.0053 15.50530804  5293"}}, "geometry": {"type": "Point", "coordinates": [-30.11349394463265, 13.650666261913695]}}, {"type": "Feature", "properties": {"norad_id": 66798, "name": "STARLINK-36041", "group": "last-30-days", "lat": 12.386568875636337, "lon": -28.643676679569655, "alt_km": 413.5077197684177, "timestamp": "2025-12-27T07:26:23.945981+00:00", "meta": {"OBJECT_NAME": "STARLINK-36041", "OBJECT_ID": "2025-278H", "EPOCH": "2025-12-26T22:00:01.999584", "MEAN_MOTION": 15.50554315, "ECCENTRICITY": 0.00016642, "INCLINATION": 43.0002, "RA_OF_ASC_NODE": 167.289, "ARG_OF_PERICENTER": 269.7024, "MEAN_ANOMALY": 213.8081, "EPHEMERIS_TYPE": 0, "CLASSIFICATION_TYPE": "U", "NORAD_CAT_ID": 66798, "ELEMENT_SET_NO": 999, "REV_AT_EPOCH": 507, "BSTAR": 0.00014450836, "MEAN_MOTION_DOT": 8.137e-05, "MEAN_MOTION_DDOT": 0}, "tle": {"line1": "1 66798U 25278H   25360.91668981  .00008137  00000+0  14451-3 0  9990", "line2": "2 66798  43.0002 167.2890 0001664 269.7024 213.8081 15.50554315  5076"}}, "geometry": {"type": "Point", "coordinates": [-28.643676679569655, 12.386568875636337]}}, {"type": "Feature", "properties": {"norad_id": 66799, "name": "STARLINK-36044", "group": "last-30-days", "lat": 11.110154755029974, "lon": -27.181884280674222, "alt_km": 413.6986950106593, "timestamp": "2025-12-27T07:26:23.945997+00:00", "meta": {"OBJECT_NAME": "STARLINK-36044", "OBJECT_ID": "2025-278J", "EPOCH": "2025-12-26T22:00:01.999584", "MEAN_MOTION": 15.50561513, "ECCENTRICITY": 0.00015608, "INCLINATION": 43.0002, "RA_OF_ASC_NODE": 167.2847, "ARG_OF_PERICENTER": 272.6907, "MEAN_ANOMALY": 212.7346, "EPHEMERIS_TYPE": 0, "CLASSIFICATION_TYPE": "U", "NORAD_CAT_ID": 66799, "ELEMENT_SET_NO": 999, "REV_AT_EPOCH": 523, "BSTAR": -5.3507589e-05, "MEAN_MOTION_DOT": -3.477e-05, "MEAN_MOTION_DDOT": 0}, "tle": {"line1": "1 66799U 25278J   25360.91668981 -.00003477  00000+0 -53508-4 0  9992", "line2": "2 66799  43.0002 167.2847 0001560 272.6907 212.7346 15.50561513  5235"}}, "geometry": {"type": "Point", "coordinates": [-27.181884280674222, 11.110154755029974]}}]}